EUTELSAT 8 WEST B       
1 40875U 15039B   25295.11987075 -.00000057  00000+0  00000+0 0  9994
2 40875   0.0700 352.1275 0003877 223.2312 210.6071  1.00271476 37261
EUTELSAT 9B             
1 41310U 16005A   25295.11275255  .00000070  00000+0  00000+0 0  9997
2 41310   0.0661  66.6476 0003697 174.9573 198.7935  1.00271977 35723
EUTELSAT 65 WEST A      
1 41382U 16014A   25295.10860404 -.00000268  00000+0  00000+0 0  9991
2 41382   0.0610  34.1304 0002273 185.6982 144.8756  1.00272125 35143
EUTELSAT 117 WEST B     
1 41589U 16038B   25295.02696367 -.00000004  00000+0  00000+0 0  9990
2 41589   0.0161  75.7583 0000039 142.4669  65.2363  1.00272365 34273
EUTELSAT 172B           
1 42741U 17029B   25295.08416394  .00000003  00000+0  00000+0 0  9996
2 42741   0.0195 172.1553 0000248 264.8583 156.0691  1.00273527 31345
EUTELSAT 7C             
1 44334U 19034B   25294.30789122  .00000055  00000+0  00000+0 0  9997
2 44334   0.0659 185.0176 0003112   6.0169 316.8247  1.00271467  4448
EUTELSAT 5 WEST B       
1 44624U 19067A   25295.12047742 -.00000032  00000+0  00000+0 0  9997
2 44624   0.0695 352.7536 0003355 224.4203 212.0580  1.00277712 22050
EUTELSAT KONNECT        
1 45027U 20005B   25294.90874978  .00000057  00000+0  00000+0 0  9999
2 45027   0.0671  88.9037 0001390 157.6662 118.4074  1.00269524 21934
